HIMAWARI-8              
1 40267U 14060A   24049.77836073 -.00000284  00000+0  00000+0 0  9993
2 40267   0.0247 177.5061 0001414 153.3994 238.1531  1.00270233 34340
